HAWK-12A                
1 64623U 25138C   26195.98581802  .00001875  00000+0  94228-4 0  9993
2 64623  97.4411 198.3065 0015025  47.5141 312.7360 15.18401313 58086
HAWK-13A                
1 67392U 26004AF  26195.98905677  .00002270  00000+0  11061-3 0  9995
2 67392  97.4444 194.4654 0004118 220.6485 139.4442 15.19357307 27989
HAWK-13C                
1 67393U 26004AG  26195.92304628  .00002255  00000+0  10990-3 0  9992
2 67393  97.4588 194.8241 0003952 224.4149 135.6769 15.19356897 27971
HAWK-13B                
1 67396U 26004AK  26195.98881792  .00002231  00000+0  10877-3 0  9991
2 67396  97.4528 194.7125 0005235 225.5483 134.5324 15.19356297 27987
HAWK-14B                
1 68436U 26067W   26195.82901516  .00002390  00000+0  11939-3 0  9992
2 68436  97.4561 153.8860 0001558   1.3554 358.7684 15.18428977 16133
HAWK-14C                
1 68441U 26067AB  26195.82911593  .00002410  00000+0  12039-3 0  9999
2 68441  97.4499 153.7666 0002653  25.2611 334.8752 15.18426747 16132
HAWK-14A                
1 68448U 26067AJ  26195.82923814  .00002420  00000+0  12084-3 0  9996
2 68448  97.4622 154.0121 0003325  16.5241 343.6101 15.18430358 16135
